OBJECT C                
1 57582U 23117C   25045.15095118  .00013146  00000+0  56153-3 0  9994
2 57582  97.4578 120.7136 0009763 163.0860 197.0704 15.22959418 83924
